[{"OBJECT_NAME":"ONEWEB-0356","OBJECT_ID":"2021-090E","EPOCH":"2025-09-27T04:45:59.803776","MEAN_MOTION":13.20772673,"ECCENTRICITY":0.00020642,"INCLINATION":87.9245,"RA_OF_ASC_NODE":326.8768,"ARG_OF_PERICENTER":72.555,"MEAN_ANOMALY":287.5809,"EPHEMERIS_TYPE":0,"CLASSIFICATION_TYPE":"U","NORAD_CAT_ID":49283,"ELEMENT_SET_NO":999,"REV_AT_EPOCH":19511,"BSTAR":0.00028451295,"MEAN_MOTION_DOT":1.29e-6,"MEAN_MOTION_DDOT":0},{"OBJECT_NAME":"ONEWEB-0358","OBJECT_ID":"2021-090F","EPOCH":"2025-09-27T12:45:32.308416","MEAN_MOTION":13.20771088,"ECCENTRICITY":0.00019313,"INCLINATION":87.9256,"RA_OF_ASC_NODE":326.8054,"ARG_OF_PERICENTER":92.744,"MEAN_ANOMALY":267.3915,"EPHEMERIS_TYPE":0,"CLASSIFICATION_TYPE":"U","NORAD_CAT_ID":49284,"ELEMENT_SET_NO":999,"REV_AT_EPOCH":19588,"BSTAR":5.9135413e-5,"MEAN_MOTION_DOT":3.7e-7,"MEAN_MOTION_DDOT":0},{"OBJECT_NAME":"ONEWEB-0359","OBJECT_ID":"2021-090G","EPOCH":"2025-09-27T12:40:59.863296","MEAN_MOTION":13.20771609,"ECCENTRICITY":0.00022651,"INCLINATION":87.9248,"RA_OF_ASC_NODE":326.8117,"ARG_OF_PERICENTER":98.2873,"MEAN_ANOMALY":261.8517,"EPHEMERIS_TYPE":0,"CLASSIFICATION_TYPE":"U","NORAD_CAT_ID":49285,"ELEMENT_SET_NO":999,"REV_AT_EPOCH":19586,"BSTAR":0.00025148246,"MEAN_MOTION_DOT":1.15e-6,"MEAN_MOTION_DDOT":0},{"OBJECT_NAME":"ONEWEB-0360","OBJECT_ID":"2021-090H","EPOCH":"2025-09-27T14:16:27.224256","MEAN_MOTION":13.20771231,"ECCENTRICITY":0.00020116,"INCLINATION":87.9247,"RA_OF_ASC_NODE":326.8073,"ARG_OF_PERICENTER":98.56,"MEAN_ANOMALY":261.5761,"EPHEMERIS_TYPE":0,"CLASSIFICATION_TYPE":"U","NORAD_CAT_ID":49286,"ELEMENT_SET_NO":999,"REV_AT_EPOCH":19518,"BSTAR":4.2403369e-5,"MEAN_MOTION_DOT":3.0e-7,"MEAN_MOTION_DDOT":0},{"OBJECT_NAME":"ONEWEB-0361","OBJECT_ID":"2021-090J","EPOCH":"2025-09-27T04:43:43.850784","MEAN_MOTION":13.20771518,"ECCENTRICITY":0.00019085,"INCLINATION":87.9246,"RA_OF_ASC_NODE":326.8825,"ARG_OF_PERICENTER":91.8785,"MEAN_ANOMALY":268.2567,"EPHEMERIS_TYPE":0,"CLASSIFICATION_TYPE":"U","NORAD_CAT_ID":49287,"ELEMENT_SET_NO":999,"REV_AT_EPOCH":19558,"BSTAR":0.00029917379,"MEAN_MOTION_DOT":1.35e-6,"MEAN_MOTION_DDOT":0},{"OBJECT_NAME":"ONEWEB-0362","OBJECT_ID":"2021-090K","EPOCH":"2025-09-27T05:52:12.925920","MEAN_MOTION":13.1972798,"ECCENTRICITY":0.00018717,"INCLINATION":87.9281,"RA_OF_ASC_NODE":357.2856,"ARG_OF_PERICENTER":108.9164,"MEAN_ANOMALY":251.2172,"EPHEMERIS_TYPE":0,"CLASSIFICATION_TYPE":"U","NORAD_CAT_ID":49288,"ELEMENT_SET_NO":999,"REV_AT_EPOCH":19223,"BSTAR":0.00029542176,"MEAN_MOTION_DOT":1.31e-6,"MEAN_MOTION_DDOT":0},{"OBJECT_NAME":"ONEWEB-0363","OBJECT_ID":"2021-090L","EPOCH":"2025-09-27T14:11:54.118176","MEAN_MOTION":13.20771463,"ECCENTRICITY":0.00019588,"INCLINATION":87.9248,"RA_OF_ASC_NODE":326.7999,"ARG_OF_PERICENTER":86.3387,"MEAN_ANOMALY":273.7971,"EPHEMERIS_TYPE":0,"CLASSIFICATION_TYPE":"U","NORAD_CAT_ID":49289,"ELEMENT_SET_NO":999,"REV_AT_EPOCH":19564,"BSTAR":-2.5917027e-5,"MEAN_MOTION_DOT":2.0e-8,"MEAN_MOTION_DDOT":0},{"OBJECT_NAME":"ONEWEB-0364","OBJECT_ID":"2021-090M","EPOCH":"2025-09-27T13:17:21.662880","MEAN_MOTION":13.20770638,"ECCENTRICITY":0.00018438,"INCLINATION":87.9244,"RA_OF_ASC_NODE":326.8335,"ARG_OF_PERICENTER":92.7837,"MEAN_ANOMALY":267.3507,"EPHEMERIS_TYPE":0,"CLASSIFICATION_TYPE":"U","NORAD_CAT_ID":49290,"ELEMENT_SET_NO":999,"REV_AT_EPOCH":19677,"BSTAR":-4.7481896e-5,"MEAN_MOTION_DOT":-6.0e-8,"MEAN_MOTION_DDOT":0},{"OBJECT_NAME":"ONEWEB-0365","OBJECT_ID":"2021-090N","EPOCH":"2025-09-27T06:05:50.665632","MEAN_MOTION":13.19727477,"ECCENTRICITY":0.00017158,"INCLINATION":87.9286,"RA_OF_ASC_NODE":357.2391,"ARG_OF_PERICENTER":103.0147,"MEAN_ANOMALY":257.1177,"EPHEMERIS_TYPE":0,"CLASSIFICATION_TYPE":"U","NORAD_CAT_ID":49291,"ELEMENT_SET_NO":999,"REV_AT_EPOCH":19174,"BSTAR":0.00022795441,"MEAN_MOTION_DOT":1.04e-6,"MEAN_MOTION_DDOT":0},{"OBJECT_NAME":"ONEWEB-0366","OBJECT_ID":"2021-090P","EPOCH":"2025-09-27T05:17:38.186304","MEAN_MOTION":13.14504346,"ECCENTRICITY":0.00018509,"INCLINATION":87.9071,"RA_OF_ASC_NODE":342.0909,"ARG_OF_PERICENTER":97.3533,"MEAN_ANOMALY":262.7807,"EPHEMERIS_TYPE":0,"CLASSIFICATION_TYPE":"U","NORAD_CAT_ID":49292,"ELEMENT_SET_NO":999,"REV_AT_EPOCH":19301,"BSTAR":-0.00050064442,"MEAN_MOTION_DOT":-1.73e-6,"MEAN_MOTION_DDOT":0},{"OBJECT_NAME":"ONEWEB-0367","OBJECT_ID":"2021-090Q","EPOCH":"2025-09-27T14:09:37.569024","MEAN_MOTION":13.20770221,"ECCENTRICITY":0.00018831,"INCLINATION":87.9253,"RA_OF_ASC_NODE":326.7964,"ARG_OF_PERICENTER":103.8457,"MEAN_ANOMALY":256.2886,"EPHEMERIS_TYPE":0,"CLASSIFICATION_TYPE":"U","NORAD_CAT_ID":49293,"ELEMENT_SET_NO":999,"REV_AT_EPOCH":19516,"BSTAR":9.3689981e-5,"MEAN_MOTION_DOT":5.1e-7,"MEAN_MOTION_DDOT":0},{"OBJECT_NAME":"ONEWEB-0368","OBJECT_ID":"2021-090R","EPOCH":"2025-09-27T13:30:59.737824","MEAN_MOTION":13.20771441,"ECCENTRICITY":0.00012546,"INCLINATION":87.9246,"RA_OF_ASC_NODE":326.837,"ARG_OF_PERICENTER":74.215,"MEAN_ANOMALY":285.9122,"EPHEMERIS_TYPE":0,"CLASSIFICATION_TYPE":"U","NORAD_CAT_ID":49294,"ELEMENT_SET_NO":999,"REV_AT_EPOCH":19631,"BSTAR":0.00010460261,"MEAN_MOTION_DOT":5.5e-7,"MEAN_MOTION_DDOT":0},{"OBJECT_NAME":"ONEWEB-0369","OBJECT_ID":"2021-090S","EPOCH":"2025-09-27T05:59:02.017824","MEAN_MOTION":13.19727282,"ECCENTRICITY":0.00017293,"INCLINATION":87.9285,"RA_OF_ASC_NODE":357.272,"ARG_OF_PERICENTER":101.5874,"MEAN_ANOMALY":258.5453,"EPHEMERIS_TYPE":0,"CLASSIFICATION_TYPE":"U","NORAD_CAT_ID":49295,"ELEMENT_SET_NO":999,"REV_AT_EPOCH":19173,"BSTAR":0.00014465364,"MEAN_MOTION_DOT":7.1e-7,"MEAN_MOTION_DDOT":0},{"OBJECT_NAME":"ONEWEB-0370","OBJECT_ID":"2021-090T","EPOCH":"2025-09-27T05:17:49.250688","MEAN_MOTION":13.20770851,"ECCENTRICITY":0.00021272,"INCLINATION":87.9251,"RA_OF_ASC_NODE":326.878,"ARG_OF_PERICENTER":103.8531,"MEAN_ANOMALY":256.284,"EPHEMERIS_TYPE":0,"CLASSIFICATION_TYPE":"U","NORAD_CAT_ID":49296,"ELEMENT_SET_NO":999,"REV_AT_EPOCH":19515,"BSTAR":-0.000105832,"MEAN_MOTION_DOT":-3.0e-7,"MEAN_MOTION_DDOT":0},{"OBJECT_NAME":"ONEWEB-0371","OBJECT_ID":"2021-090U","EPOCH":"2025-09-27T06:10:23.751840","MEAN_MOTION":13.19727125,"ECCENTRICITY":0.00017974,"INCLINATION":87.9281,"RA_OF_ASC_NODE":357.2586,"ARG_OF_PERICENTER":104.312,"MEAN_ANOMALY":255.8212,"EPHEMERIS_TYPE":0,"CLASSIFICATION_TYPE":"U","NORAD_CAT_ID":49297,"ELEMENT_SET_NO":999,"REV_AT_EPOCH":19177,"BSTAR":0.00034731824,"MEAN_MOTION_DOT":1.52e-6,"MEAN_MOTION_DDOT":0},{"OBJECT_NAME":"ONEWEB-0372","OBJECT_ID":"2021-090V","EPOCH":"2025-09-27T14:07:09.330816","MEAN_MOTION":13.2077285,"ECCENTRICITY":0.00017612,"INCLINATION":87.9246,"RA_OF_ASC_NODE":326.807,"ARG_OF_PERICENTER":98.0751,"MEAN_ANOMALY":262.0582,"EPHEMERIS_TYPE":0,"CLASSIFICATION_TYPE":"U","NORAD_CAT_ID":49298,"ELEMENT_SET_NO":999,"REV_AT_EPOCH":19517,"BSTAR":2.5571084e-5,"MEAN_MOTION_DOT":2.3e-7,"MEAN_MOTION_DDOT":0},{"OBJECT_NAME":"ONEWEB-0373","OBJECT_ID":"2021-090W","EPOCH":"2025-09-27T12:56:54.094272","MEAN_MOTION":13.20771678,"ECCENTRICITY":0.00019328,"INCLINATION":87.9245,"RA_OF_ASC_NODE":326.8303,"ARG_OF_PERICENTER":95.9516,"MEAN_ANOMALY":264.1837,"EPHEMERIS_TYPE":0,"CLASSIFICATION_TYPE":"U","NORAD_CAT_ID":49299,"ELEMENT_SET_NO":999,"REV_AT_EPOCH":19635,"BSTAR":-0.0002764982,"MEAN_MOTION_DOT":-9.9e-7,"MEAN_MOTION_DDOT":0},{"OBJECT_NAME":"ONEWEB-0374","OBJECT_ID":"2021-090X","EPOCH":"2025-09-27T14:07:26.586624","MEAN_MOTION":13.14502541,"ECCENTRICITY":0.00017238,"INCLINATION":87.9069,"RA_OF_ASC_NODE":341.9936,"ARG_OF_PERICENTER":80.9151,"MEAN_ANOMALY":279.2174,"EPHEMERIS_TYPE":0,"CLASSIFICATION_TYPE":"U","NORAD_CAT_ID":49300,"ELEMENT_SET_NO":999,"REV_AT_EPOCH":19306,"BSTAR":0.00019452446,"MEAN_MOTION_DOT":8.5e-7,"MEAN_MOTION_DDOT":0},{"OBJECT_NAME":"ONEWEB-0375","OBJECT_ID":"2021-090Y","EPOCH":"2025-09-27T05:22:21.691488","MEAN_MOTION":13.20771934,"ECCENTRICITY":0.00021767,"INCLINATION":87.9247,"RA_OF_ASC_NODE":326.8731,"ARG_OF_PERICENTER":82.6832,"MEAN_ANOMALY":277.4548,"EPHEMERIS_TYPE":0,"CLASSIFICATION_TYPE":"U","NORAD_CAT_ID":49301,"ELEMENT_SET_NO":999,"REV_AT_EPOCH":19581,"BSTAR":-2.2772394e-5,"MEAN_MOTION_DOT":4.0e-8,"MEAN_MOTION_DDOT":0},{"OBJECT_NAME":"ONEWEB-0376","OBJECT_ID":"2021-090Z","EPOCH":"2025-09-27T06:08:07.932768","MEAN_MOTION":13.19725371,"ECCENTRICITY":0.00016227,"INCLINATION":87.9286,"RA_OF_ASC_NODE":357.2414,"ARG_OF_PERICENTER":105.496,"MEAN_ANOMALY":254.6352,"EPHEMERIS_TYPE":0,"CLASSIFICATION_TYPE":"U","NORAD_CAT_ID":49302,"ELEMENT_SET_NO":999,"REV_AT_EPOCH":19177,"BSTAR":0.00032349051,"MEAN_MOTION_DOT":1.42e-6,"MEAN_MOTION_DDOT":0},{"OBJECT_NAME":"ONEWEB-0377","OBJECT_ID":"2021-090AA","EPOCH":"2025-09-27T14:07:33.483936","MEAN_MOTION":13.20772784,"ECCENTRICITY":0.00021345,"INCLINATION":87.9254,"RA_OF_ASC_NODE":326.7959,"ARG_OF_PERICENTER":97.2432,"MEAN_ANOMALY":262.8944,"EPHEMERIS_TYPE":0,"CLASSIFICATION_TYPE":"U","NORAD_CAT_ID":49303,"ELEMENT_SET_NO":999,"REV_AT_EPOCH":19585,"BSTAR":0.00012926034,"MEAN_MOTION_DOT":6.6e-7,"MEAN_MOTION_DDOT":0},{"OBJECT_NAME":"ONEWEB-0378","OBJECT_ID":"2021-090AB","EPOCH":"2025-09-27T12:50:15.229536","MEAN_MOTION":13.20769531,"ECCENTRICITY":0.00018978,"INCLINATION":87.9263,"RA_OF_ASC_NODE":326.8207,"ARG_OF_PERICENTER":92.7424,"MEAN_ANOMALY":267.3927,"EPHEMERIS_TYPE":0,"CLASSIFICATION_TYPE":"U","NORAD_CAT_ID":49304,"ELEMENT_SET_NO":999,"REV_AT_EPOCH":19511,"BSTAR":-0.00016280989,"MEAN_MOTION_DOT":-5.3e-7,"MEAN_MOTION_DDOT":0},{"OBJECT_NAME":"ONEWEB-0379","OBJECT_ID":"2021-090AC","EPOCH":"2025-09-27T04:52:30.937440","MEAN_MOTION":13.14501794,"ECCENTRICITY":0.00017165,"INCLINATION":87.9072,"RA_OF_ASC_NODE":342.0779,"ARG_OF_PERICENTER":96.7813,"MEAN_ANOMALY":263.3512,"EPHEMERIS_TYPE":0,"CLASSIFICATION_TYPE":"U","NORAD_CAT_ID":49305,"ELEMENT_SET_NO":999,"REV_AT_EPOCH":19301,"BSTAR":0.00071918175,"MEAN_MOTION_DOT":2.79e-6,"MEAN_MOTION_DDOT":0}]
